TIGRISAT                
1 40043U 14033AK  26074.18355962  .00002333  00000+0  27544-3 0  9995
2 40043  97.7684 226.4448 0049963  24.5891 335.7690 14.84758376631673
AEROCUBE 6A             
1 40045U 14033AM  26074.27853572  .00008307  00000+0  71720-3 0  9999
2 40045  97.7132 242.3448 0038207 331.5600  28.3536 14.96936267632561
AEROCUBE 6B             
1 40046U 14033AN  26073.96938182  .00008066  00000+0  67254-3 0  9995
2 40046  97.7111 241.6444 0037452 323.7294  36.1390 14.98318560632646
CANX-4                  
1 40055U 14034C   26074.18330122  .00001134  00000+0  15339-3 0  9997
2 40055  98.3269 305.9818 0011972 318.0450  41.9843 14.81076669630611
CANX-5                  
1 40056U 14034D   26074.18281222  .00001140  00000+0  15406-3 0  9996
2 40056  98.3272 306.0191 0011977 318.2573  41.7724 14.81093406621428
UKUBE-1                 
1 40074U 14037F   26074.24304726  .00011825  00000+0  69379-3 0  9990
2 40074  98.4235  67.7707 0003327 103.1132 257.0467 15.11929031634352
BRITE-PL2 (HEWELIUSZ)   
1 40119U 14049B   26074.23134285  .00002329  00000+0  22234-3 0  9991
2 40119  97.8980 185.5936 0015091  64.3202 295.9574 14.94212372627414
AEROCUBE 5C             
1 40965U 15058B   26073.94410696  .00004159  00000+0  37243-3 0  9990
2 40965  64.7676 195.6475 0130389 100.3995 261.1843 14.90905293351602
AEROCUBE 7              
1 40966U 15058C   26073.66776248  .00005866  00000+0  47711-3 0  9995
2 40966  64.7629 180.6932 0120306  99.4969 261.9766 14.94957225351822
FOX-1A (AO-85)          
1 40967U 15058D   26074.09471717  .00004322  00000+0  39301-3 0  9999
2 40967  64.7752 211.2603 0128744  93.7443 267.8400 14.90405222 99543
SINOD-D 1               
1 40968U 15058E   26073.72346103  .00006354  00000+0  51717-3 0  9991
2 40968  64.7754 194.5511 0117115  91.0913 270.3621 14.95117526102530
SNAP-3 ALICE            
1 40970U 15058G   26074.27472824  .00081352  00000+0  16885-2 0  9992
2 40970  64.7555  64.4888 0036827  66.5670 293.9333 15.44495119102310
LMRST-SAT               
1 40971U 15058H   26073.69089414  .00004588  00000+0  41814-3 0  9994
2 40971  64.7755 208.6769 0130822  95.8938 265.7103 14.90034828 99475
SNAP-3 EDDIE            
1 40972U 15058J   26074.26776555  .00078236  00000+0  15657-2 0  9994
2 40972  64.7478  55.8688 0037858  71.9051 288.6206 15.45526982104446
PROPCUBE 3              
1 40973U 15058K   26073.75391059  .00005409  00000+0  45438-3 0  9993
2 40973  64.7691 187.4234 0123275  97.5708 263.9429 14.93583524100698
BISONSAT                
1 40974U 15058L   26074.24002029  .00012683  00000+0  65448-3 0  9990
2 40974  64.7599 116.8805 0078668  88.2568 272.7563 15.13936654101385
