[{"OBJECT_NAME":"TIGRISAT","OBJECT_ID":"2014-033AK","EPOCH":"2026-03-15T04:24:19.551168","MEAN_MOTION":14.84758376,"ECCENTRICITY":0.0049963,"INCLINATION":97.7684,"RA_OF_ASC_NODE":226.4448,"ARG_OF_PERICENTER":24.5891,"MEAN_ANOMALY":335.769,"EPHEMERIS_TYPE":0,"CLASSIFICATION_TYPE":"U","NORAD_CAT_ID":40043,"ELEMENT_SET_NO":999,"REV_AT_EPOCH":63167,"BSTAR":0.00027543705,"MEAN_MOTION_DOT":2.333e-5,"MEAN_MOTION_DDOT":0},{"OBJECT_NAME":"AEROCUBE 6A","OBJECT_ID":"2014-033AM","EPOCH":"2026-03-15T06:41:05.486208","MEAN_MOTION":14.96936267,"ECCENTRICITY":0.00382079,"INCLINATION":97.7132,"RA_OF_ASC_NODE":242.3448,"ARG_OF_PERICENTER":331.56,"MEAN_ANOMALY":28.3536,"EPHEMERIS_TYPE":0,"CLASSIFICATION_TYPE":"U","NORAD_CAT_ID":40045,"ELEMENT_SET_NO":999,"REV_AT_EPOCH":63256,"BSTAR":0.00071720454,"MEAN_MOTION_DOT":8.307e-5,"MEAN_MOTION_DDOT":0},{"OBJECT_NAME":"AEROCUBE 6B","OBJECT_ID":"2014-033AN","EPOCH":"2026-03-14T23:15:54.589248","MEAN_MOTION":14.9831856,"ECCENTRICITY":0.00374528,"INCLINATION":97.7111,"RA_OF_ASC_NODE":241.6444,"ARG_OF_PERICENTER":323.7294,"MEAN_ANOMALY":36.139,"EPHEMERIS_TYPE":0,"CLASSIFICATION_TYPE":"U","NORAD_CAT_ID":40046,"ELEMENT_SET_NO":999,"REV_AT_EPOCH":63264,"BSTAR":0.00067253696,"MEAN_MOTION_DOT":8.066e-5,"MEAN_MOTION_DDOT":0},{"OBJECT_NAME":"CANX-4","OBJECT_ID":"2014-034C","EPOCH":"2026-03-15T04:23:57.225408","MEAN_MOTION":14.81076669,"ECCENTRICITY":0.00119728,"INCLINATION":98.3269,"RA_OF_ASC_NODE":305.9818,"ARG_OF_PERICENTER":318.045,"MEAN_ANOMALY":41.9843,"EPHEMERIS_TYPE":0,"CLASSIFICATION_TYPE":"U","NORAD_CAT_ID":40055,"ELEMENT_SET_NO":999,"REV_AT_EPOCH":63061,"BSTAR":0.00015338597,"MEAN_MOTION_DOT":1.134e-5,"MEAN_MOTION_DDOT":0},{"OBJECT_NAME":"CANX-5","OBJECT_ID":"2014-034D","EPOCH":"2026-03-15T04:23:14.975808","MEAN_MOTION":14.81093406,"ECCENTRICITY":0.00119778,"INCLINATION":98.3272,"RA_OF_ASC_NODE":306.0191,"ARG_OF_PERICENTER":318.2573,"MEAN_ANOMALY":41.7724,"EPHEMERIS_TYPE":0,"CLASSIFICATION_TYPE":"U","NORAD_CAT_ID":40056,"ELEMENT_SET_NO":999,"REV_AT_EPOCH":62142,"BSTAR":0.00015405681,"MEAN_MOTION_DOT":1.14e-5,"MEAN_MOTION_DDOT":0},{"OBJECT_NAME":"UKUBE-1","OBJECT_ID":"2014-037F","EPOCH":"2026-03-15T05:49:59.283264","MEAN_MOTION":15.11929031,"ECCENTRICITY":0.00033274,"INCLINATION":98.4235,"RA_OF_ASC_NODE":67.7707,"ARG_OF_PERICENTER":103.1132,"MEAN_ANOMALY":257.0467,"EPHEMERIS_TYPE":0,"CLASSIFICATION_TYPE":"U","NORAD_CAT_ID":40074,"ELEMENT_SET_NO":999,"REV_AT_EPOCH":63435,"BSTAR":0.00069378852,"MEAN_MOTION_DOT":0.00011825,"MEAN_MOTION_DDOT":0},{"OBJECT_NAME":"BRITE-PL2 (HEWELIUSZ)","OBJECT_ID":"2014-049B","EPOCH":"2026-03-15T05:33:08.022240","MEAN_MOTION":14.94212372,"ECCENTRICITY":0.0015091,"INCLINATION":97.898,"RA_OF_ASC_NODE":185.5936,"ARG_OF_PERICENTER":64.3202,"MEAN_ANOMALY":295.9574,"EPHEMERIS_TYPE":0,"CLASSIFICATION_TYPE":"U","NORAD_CAT_ID":40119,"ELEMENT_SET_NO":999,"REV_AT_EPOCH":62741,"BSTAR":0.0002223373,"MEAN_MOTION_DOT":2.329e-5,"MEAN_MOTION_DDOT":0},{"OBJECT_NAME":"AEROCUBE 5C","OBJECT_ID":"2015-058B","EPOCH":"2026-03-14T22:39:30.841344","MEAN_MOTION":14.90905293,"ECCENTRICITY":0.01303892,"INCLINATION":64.7676,"RA_OF_ASC_NODE":195.6475,"ARG_OF_PERICENTER":100.3995,"MEAN_ANOMALY":261.1843,"EPHEMERIS_TYPE":0,"CLASSIFICATION_TYPE":"U","NORAD_CAT_ID":40965,"ELEMENT_SET_NO":999,"REV_AT_EPOCH":35160,"BSTAR":0.0003724274,"MEAN_MOTION_DOT":4.159e-5,"MEAN_MOTION_DDOT":0},{"OBJECT_NAME":"AEROCUBE 7","OBJECT_ID":"2015-058C","EPOCH":"2026-03-14T16:01:34.678272","MEAN_MOTION":14.94957225,"ECCENTRICITY":0.01203062,"INCLINATION":64.7629,"RA_OF_ASC_NODE":180.6932,"ARG_OF_PERICENTER":99.4969,"MEAN_ANOMALY":261.9766,"EPHEMERIS_TYPE":0,"CLASSIFICATION_TYPE":"U","NORAD_CAT_ID":40966,"ELEMENT_SET_NO":999,"REV_AT_EPOCH":35182,"BSTAR":0.00047711019,"MEAN_MOTION_DOT":5.866e-5,"MEAN_MOTION_DDOT":0},{"OBJECT_NAME":"FOX-1A (AO-85)","OBJECT_ID":"2015-058D","EPOCH":"2026-03-15T02:16:23.563488","MEAN_MOTION":14.90405222,"ECCENTRICITY":0.0128744,"INCLINATION":64.7752,"RA_OF_ASC_NODE":211.2603,"ARG_OF_PERICENTER":93.7443,"MEAN_ANOMALY":267.84,"EPHEMERIS_TYPE":0,"CLASSIFICATION_TYPE":"U","NORAD_CAT_ID":40967,"ELEMENT_SET_NO":999,"REV_AT_EPOCH":9954,"BSTAR":0.00039300733,"MEAN_MOTION_DOT":4.322e-5,"MEAN_MOTION_DDOT":0},{"OBJECT_NAME":"SINOD-D 1","OBJECT_ID":"2015-058E","EPOCH":"2026-03-14T17:21:47.032992","MEAN_MOTION":14.95117526,"ECCENTRICITY":0.01171158,"INCLINATION":64.7754,"RA_OF_ASC_NODE":194.5511,"ARG_OF_PERICENTER":91.0913,"MEAN_ANOMALY":270.3621,"EPHEMERIS_TYPE":0,"CLASSIFICATION_TYPE":"U","NORAD_CAT_ID":40968,"ELEMENT_SET_NO":999,"REV_AT_EPOCH":10253,"BSTAR":0.00051716806,"MEAN_MOTION_DOT":6.354e-5,"MEAN_MOTION_DDOT":0},{"OBJECT_NAME":"SNAP-3 ALICE","OBJECT_ID":"2015-058G","EPOCH":"2026-03-15T06:35:36.519936","MEAN_MOTION":15.44495119,"ECCENTRICITY":0.0036827,"INCLINATION":64.7555,"RA_OF_ASC_NODE":64.4888,"ARG_OF_PERICENTER":66.567,"MEAN_ANOMALY":293.9333,"EPHEMERIS_TYPE":0,"CLASSIFICATION_TYPE":"U","NORAD_CAT_ID":40970,"ELEMENT_SET_NO":999,"REV_AT_EPOCH":10231,"BSTAR":0.0016884552,"MEAN_MOTION_DOT":0.00081352,"MEAN_MOTION_DDOT":0},{"OBJECT_NAME":"LMRST-SAT","OBJECT_ID":"2015-058H","EPOCH":"2026-03-14T16:34:53.253696","MEAN_MOTION":14.90034828,"ECCENTRICITY":0.01308224,"INCLINATION":64.7755,"RA_OF_ASC_NODE":208.6769,"ARG_OF_PERICENTER":95.8938,"MEAN_ANOMALY":265.7103,"EPHEMERIS_TYPE":0,"CLASSIFICATION_TYPE":"U","NORAD_CAT_ID":40971,"ELEMENT_SET_NO":999,"REV_AT_EPOCH":9947,"BSTAR":0.00041814291,"MEAN_MOTION_DOT":4.588e-5,"MEAN_MOTION_DDOT":0},{"OBJECT_NAME":"SNAP-3 EDDIE","OBJECT_ID":"2015-058J","EPOCH":"2026-03-15T06:25:34.943520","MEAN_MOTION":15.45526982,"ECCENTRICITY":0.00378586,"INCLINATION":64.7478,"RA_OF_ASC_NODE":55.8688,"ARG_OF_PERICENTER":71.9051,"MEAN_ANOMALY":288.6206,"EPHEMERIS_TYPE":0,"CLASSIFICATION_TYPE":"U","NORAD_CAT_ID":40972,"ELEMENT_SET_NO":999,"REV_AT_EPOCH":10444,"BSTAR":0.0015657194,"MEAN_MOTION_DOT":0.00078236,"MEAN_MOTION_DDOT":0},{"OBJECT_NAME":"PROPCUBE 3","OBJECT_ID":"2015-058K","EPOCH":"2026-03-14T18:05:37.874976","MEAN_MOTION":14.93583524,"ECCENTRICITY":0.01232754,"INCLINATION":64.7691,"RA_OF_ASC_NODE":187.4234,"ARG_OF_PERICENTER":97.5708,"MEAN_ANOMALY":263.9429,"EPHEMERIS_TYPE":0,"CLASSIFICATION_TYPE":"U","NORAD_CAT_ID":40973,"ELEMENT_SET_NO":999,"REV_AT_EPOCH":10069,"BSTAR":0.00045438135,"MEAN_MOTION_DOT":5.409e-5,"MEAN_MOTION_DDOT":0},{"OBJECT_NAME":"BISONSAT","OBJECT_ID":"2015-058L","EPOCH":"2026-03-15T05:45:37.753056","MEAN_MOTION":15.13936654,"ECCENTRICITY":0.0078668,"INCLINATION":64.7599,"RA_OF_ASC_NODE":116.8805,"ARG_OF_PERICENTER":88.2568,"MEAN_ANOMALY":272.7563,"EPHEMERIS_TYPE":0,"CLASSIFICATION_TYPE":"U","NORAD_CAT_ID":40974,"ELEMENT_SET_NO":999,"REV_AT_EPOCH":10138,"BSTAR":0.00065447863,"MEAN_MOTION_DOT":0.00012683,"MEAN_MOTION_DDOT":0}]
